NORAD_CAT_ID,OBJECT_NAME,OBJECT_TYPE,EPOCH,MEAN_MOTION,ECCENTRICITY,INCLINATION,RA_OF_ASC_NODE,ARG_OF_PERICENTER,MEAN_ANOMALY,BSTAR,MEAN_MOTION_DOT,MEAN_MOTION_DDOT,TLE_LINE0,TLE_LINE1,TLE_LINE2,SEMIMAJOR_AXIS,PERIOD,APOGEE,PERIGEE,DECAYED
52581.0,STARLINK-3915,PAYLOAD,2023-06-17 16:31:26,15.08827038,0.0001159,53.2163,270.344,105.343,254.769,-7.5296e-05,-1.485e-05,0.0,0 STARLINK-3915,1 52581U 22051AX  23168.68850059 -.00001485  00000-0 -75296-4 0  9995,2 52581  53.2163 270.3440 0001159 105.3430 254.7690 15.08827038 61298,6917.92,95.438,540.587,538.983,0.0
52581.0,STARLINK-3915,PAYLOAD,2023-06-18 06:49:53,15.08845196,0.0001141,53.2166,267.6687,102.7186,257.3933,-1.1961e-05,-4.78e-06,0.0,0 STARLINK-3915,1 52581U 22051AX  23169.28464886 -.00000478  00000-0 -11961-4 0  9991,2 52581  53.2166 267.6687 0001141 102.7186 257.3933 15.08845196 61387,6917.865,95.437,540.519,538.94,0.0
52581.0,STARLINK-3915,PAYLOAD,2023-06-18 13:11:25,15.08849303,9.88e-05,53.2173,266.4798,100.4065,259.7039,0.00010513,1.386e-05,0.0,0 STARLINK-3915,1 52581U 22051AX  23169.54960305  .00001386  00000-0  10513-3 0  9995,2 52581  53.2173 266.4798 0000988 100.4065 259.7039 15.08849303 61358,6917.852,95.437,540.4,539.033,0.0
52581.0,STARLINK-3915,PAYLOAD,2023-06-19 06:40:40,15.08830732,0.0001105,53.2172,263.2086,110.1183,249.9928,0.00025469,3.767e-05,0.0,0 STARLINK-3915,1 52581U 22051AX  23170.27825223  .00003767  00000-0  25469-3 0  9997,2 52581  53.2172 263.2086 0001105 110.1183 249.9928 15.08830732 61537,6917.909,95.438,540.538,539.009,0.0
52581.0,STARLINK-3915,PAYLOAD,2023-06-20 12:53:00,15.08842467,0.0001018,53.2168,257.5586,107.9966,252.1137,3.6424e-05,2.92e-06,0.0,0 STARLINK-3915,1 52581U 22051AX  23171.53681278  .00000292  00000-0  36424-4 0  9991,2 52581  53.2168 257.5586 0001018 107.9966 252.1137 15.08842467 61658,6917.873,95.437,540.442,539.034,0.0
52581.0,STARLINK-3915,PAYLOAD,2023-06-20 17:39:09,15.08845364,0.0001027,53.2166,256.6663,106.877,253.2335,4.1941e-05,3.8e-06,0.0,0 STARLINK-3915,1 52581U 22051AX  23171.73553001  .00000380  00000-0  41941-4 0  9993,2 52581  53.2166 256.6663 0001027 106.8770 253.2335 15.08845364 61687,6917.864,95.437,540.439,539.019,0.0
52581.0,STARLINK-3915,PAYLOAD,2023-06-20 22:25:19,15.0883712,0.0001019,53.2157,255.7736,106.5338,253.5766,-5.9459e-05,-1.234e-05,0.0,0 STARLINK-3915,1 52581U 22051AX  23171.93425697 -.00001234  00000-0 -59459-4 0  9998,2 52581  53.2157 255.7736 0001019 106.5338 253.5766 15.08837120 61789,6917.889,95.438,540.459,539.049,0.0
52581.0,STARLINK-3915,PAYLOAD,2023-06-21 12:43:47,15.08844094,9.74e-05,53.2163,253.0975,103.0206,257.0895,0.000111,1.479e-05,0.0,0 STARLINK-3915,1 52581U 22051AX  23172.53041029  .00001479  00000-0  11100-3 0  9997,2 52581  53.2163 253.0975 0000974 103.0206 257.0895 15.08844094 61877,6917.868,95.437,540.407,539.059,0.0
52581.0,STARLINK-3915,PAYLOAD,2023-06-22 09:23:48,15.08837008,0.0001054,53.2158,249.232,111.3332,248.7773,6.3413e-05,7.22e-06,0.0,0 STARLINK-3915,1 52581U 22051AX  23173.39153760  .00000722  00000-0  63413-4 0  9993,2 52581  53.2158 249.2320 0001054 111.3332 248.7773 15.08837008 62009,6917.89,95.438,540.484,539.025,0.0
52581.0,STARLINK-3915,PAYLOAD,2023-06-22 12:34:34,15.08846982,0.0001434,53.2145,248.6335,124.3526,235.7602,0.00010009,1.306e-05,0.0,0 STARLINK-3915,1 52581U 22051AX  23173.52401038  .00001306  00000-0  10009-3 0  9993,2 52581  53.2145 248.6335 0001434 124.3526 235.7602 15.08846982 62025,6917.859,95.437,540.716,538.732,0.0
52581.0,STARLINK-3915,PAYLOAD,2023-06-22 22:06:54,15.08835405,0.0001274,53.216,246.8507,88.2258,271.888,0.00013847,1.916e-05,0.0,0 STARLINK-3915,1 52581U 22051AX  23173.92145866  .00001916  00000-0  13847-3 0  9991,2 52581  53.2160 246.8507 0001274  88.2258 271.8880 15.08835405 62088,6917.894,95.438,540.641,538.878,0.0
52581.0,STARLINK-3915,PAYLOAD,2023-06-23 14:00:44,15.08845917,9.19e-05,53.2159,243.879,88.6714,271.4383,0.00012773,1.746e-05,0.0,0 STARLINK-3915,1 52581U 22051AX  23174.58385301  .00001746  00000-0  12773-3 0  9992,2 52581  53.2159 243.8790 0000919  88.6714 271.4383 15.08845917 62187,6917.862,95.437,540.363,539.092,0.0
52581.0,STARLINK-3915,PAYLOAD,2023-06-24 15:26:55,15.088493,8.7e-05,53.2153,239.1212,84.5009,275.6082,0.0002101,3.058e-05,0.0,0 STARLINK-3915,1 52581U 22051AX  23175.64369236  .00003058  00000-0  21010-3 0  9991,2 52581  53.2153 239.1212 0000870  84.5009 275.6082 15.08849300 62346,6917.852,95.437,540.319,539.115,0.0
52581.0,STARLINK-3915,PAYLOAD,2023-06-24 21:48:27,15.08840981,0.0001067,53.2155,237.932,69.9325,290.1782,-9.6648e-06,-4.42e-06,0.0,0 STARLINK-3915,1 52581U 22051AX  23175.90865662 -.00000442  00000-0 -96648-5 0  9991,2 52581  53.2155 237.9320 0001067  69.9325 290.1782 15.08840981 62380,6917.877,95.437,540.481,539.004,0.0
52581.0,STARLINK-3915,PAYLOAD,2023-06-26 08:46:57,15.08838791,0.0001056,53.2157,231.3879,91.4564,268.6549,-1.4481e-05,-5.18e-06,0.0,0 STARLINK-3915,1 52581U 22051AX  23177.36594097 -.00000518  00000-0 -14481-4 0  9992,2 52581  53.2157 231.3879 0001056  91.4564 268.6549 15.08838791 62604,6917.884,95.438,540.48,539.019,0.0
52581.0,STARLINK-3915,PAYLOAD,2023-06-27 10:13:07,15.08839294,0.0001036,53.2163,226.632,91.8171,268.2939,7.12e-05,8.46e-06,0.0,0 STARLINK-3915,1 52581U 22051AX  23178.42577999  .00000846  00000-0  71200-4 0  9996,2 52581  53.2163 226.6320 0001036  91.8171 268.2939 15.08839294 62760,6917.883,95.438,540.464,539.031,0.0
52581.0,STARLINK-3915,PAYLOAD,2023-06-28 13:14:40,15.08839228,0.0001023,53.2162,221.5771,89.7855,270.3254,0.00011698,1.574e-05,0.0,0 STARLINK-3915,1 52581U 22051AX  23179.55186124  .00001574  00000-0  11698-3 0  9990,2 52581  53.2162 221.5771 0001023  89.7855 270.3254 15.08839228 62934,6917.883,95.438,540.455,539.04,0.0
52581.0,STARLINK-3915,PAYLOAD,2023-06-29 09:54:42,15.08833786,0.0001031,53.216,217.7115,88.2537,271.8573,2.1705e-05,5.8e-07,0.0,0 STARLINK-3915,1 52581U 22051AX  23180.41298956  .00000058  00000-0  21705-4 0  9991,2 52581  53.2160 217.7115 0001031  88.2537 271.8573 15.08833786 63069,6917.899,95.438,540.478,539.051,0.0
52581.0,STARLINK-3915,PAYLOAD,2023-07-01 09:36:16,15.08836713,9.14e-05,53.2152,208.7879,88.4184,271.6913,5.6657e-05,6.14e-06,0.0,0 STARLINK-3915,1 52581U 22051AX  23182.40018751  .00000614  00000-0  56657-4 0  9997,2 52581  53.2152 208.7879 0000914  88.4184 271.6913 15.08836713 63368,6917.89,95.438,540.388,539.123,0.0
52581.0,STARLINK-3915,PAYLOAD,2023-07-02 11:02:25,15.0884488,9.53e-05,53.2156,204.0315,82.0837,278.0264,4.3655e-05,4.07e-06,0.0,0 STARLINK-3915,1 52581U 22051AX  23183.46002212  .00000407  00000-0  43655-4 0  9993,2 52581  53.2156 204.0315 0000953  82.0837 278.0264 15.08844880 63526,6917.865,95.437,540.39,539.071,0.0
52581.0,STARLINK-3915,PAYLOAD,2023-07-03 01:20:54,15.08837694,8.58e-05,53.2157,201.3544,82.0421,278.0668,6.5737e-05,7.59e-06,0.0,0 STARLINK-3915,1 52581U 22051AX  23184.05618537  .00000759  00000-0  65737-4 0  9997,2 52581  53.2157 201.3544 0000858  82.0421 278.0668 15.08837694 63617,6917.887,95.438,540.346,539.159,0.0
52581.0,STARLINK-3915,PAYLOAD,2023-07-04 07:33:14,15.08839398,0.0001016,53.2157,195.7054,80.8022,279.3085,1.407e-05,-6.4e-07,0.0,0 STARLINK-3915,1 52581U 22051AX  23185.31474584 -.00000064  00000-0  14070-4 0  9993,2 52581  53.2157 195.7054 0001016  80.8022 279.3085 15.08839398 63800,6917.882,95.438,540.45,539.044,0.0
52581.0,STARLINK-3915,PAYLOAD,2023-07-05 16:56:20,15.0883462,0.0001051,53.2157,189.4605,78.4939,281.6171,-2.9977e-06,-3.35e-06,0.0,0 STARLINK-3915,1 52581U 22051AX  23186.70579049 -.00000335  00000-0 -29977-5 0  9994,2 52581  53.2157 189.4605 0001051  78.4939 281.6171 15.08834620 64010,6917.897,95.438,540.489,539.035,0.0
52581.0,STARLINK-3915,PAYLOAD,2023-07-07 08:40:58,15.08840736,0.0001061,53.2153,182.0264,79.1061,281.005,6.4072e-05,7.32e-06,0.0,0 STARLINK-3915,1 52581U 22051AX  23188.36178934  .00000732  00000-0  64072-4 0  9999,2 52581  53.2153 182.0264 0001061  79.1061 281.0050 15.08840736 64263,6917.878,95.438,540.477,539.009,0.0
52581.0,STARLINK-3915,PAYLOAD,2023-07-08 16:28:41,15.08839481,0.0001091,53.2152,176.0789,82.5701,277.5415,6.3118e-05,7.17e-06,0.0,0 STARLINK-3915,1 52581U 22051AX  23189.68659102  .00000717  00000-0  63118-4 0  9999,2 52581  53.2152 176.0789 0001091  82.5701 277.5415 15.08839481 64461,6917.882,95.438,540.502,538.992,0.0
52581.0,STARLINK-3915,PAYLOAD,2023-07-10 05:02:33,15.08843642,0.0001102,53.2154,169.2387,85.9384,274.1734,4.6369e-05,4.5e-06,0.0,0 STARLINK-3915,1 52581U 22051AX  23191.21010839  .00000450  00000-0  46369-4 0  9992,2 52581  53.2154 169.2387 0001102  85.9384 274.1734 15.08843642 64694,6917.869,95.437,540.497,538.972,0.0
52581.0,STARLINK-3915,PAYLOAD,2023-07-11 08:04:06,15.08840924,0.0001229,53.2164,164.1839,90.4693,269.6439,6.3995e-05,7.31e-06,0.0,0 STARLINK-3915,1 52581U 22051AX  23192.33618916  .00000731  00000-0  63995-4 0  9992,2 52581  53.2164 164.1839 0001229  90.4693 269.6439 15.08840924 64865,6917.878,95.437,540.593,538.892,0.0
52581.0,STARLINK-3915,PAYLOAD,2023-07-12 14:16:26,15.08836827,0.0001223,53.2151,158.5339,89.9643,270.1489,-3.1089e-06,-3.37e-06,0.0,0 STARLINK-3915,1 52581U 22051AX  23193.59475526 -.00000337  00000-0 -31089-5 0  9993,2 52581  53.2151 158.5339 0001223  89.9643 270.1489 15.08836827 65056,6917.89,95.438,540.601,538.909,0.0
52581.0,STARLINK-3915,PAYLOAD,2023-07-13 04:34:54,15.08839817,0.0001086,53.216,155.8584,91.8597,268.252,5.3942e-05,5.71e-06,0.0,0 STARLINK-3915,1 52581U 22051AX  23194.19091307  .00000571  00000-0  53942-4 0  9990,2 52581  53.2160 155.8584 0001086  91.8597 268.2520 15.08839817 65141,6917.881,95.438,540.497,538.995,0.0
52581.0,STARLINK-3915,PAYLOAD,2023-07-14 13:58:01,15.08843453,0.000109,53.2157,149.6144,96.8591,263.2525,-2.1856e-05,-6.36e-06,0.0,0 STARLINK-3915,1 52581U 22051AX  23195.58195790 -.00000636  00000-0 -21856-4 0  9998,2 52581  53.2157 149.6144 0001090  96.8591 263.2525 15.08843453 65358,6917.87,95.437,540.489,538.981,0.0
